[{"OBJECT_NAME":"QIANFAN GROUP 7 OBJECT J","OBJECT_ID":"2026-075J","EPOCH":"2026-04-16T15:45:41.633568","MEAN_MOTION":14.23240498,"ECCENTRICITY":0.00140061,"INCLINATION":88.991,"RA_OF_ASC_NODE":327.6632,"ARG_OF_PERICENTER":189.2081,"MEAN_ANOMALY":170.8857,"EPHEMERIS_TYPE":0,"CLASSIFICATION_TYPE":"U","NORAD_CAT_ID":68644,"ELEMENT_SET_NO":999,"REV_AT_EPOCH":129,"BSTAR":-0.311621,"MEAN_MOTION_DOT":-0.0066519,"MEAN_MOTION_DDOT":0},{"OBJECT_NAME":"QIANFAN GROUP 7 OBJECT K","OBJECT_ID":"2026-075K","EPOCH":"2026-04-14T21:34:52.633056","MEAN_MOTION":14.25853296,"ECCENTRICITY":0.00186791,"INCLINATION":88.9911,"RA_OF_ASC_NODE":327.8671,"ARG_OF_PERICENTER":181.3174,"MEAN_ANOMALY":178.7974,"EPHEMERIS_TYPE":0,"CLASSIFICATION_TYPE":"U","NORAD_CAT_ID":68645,"ELEMENT_SET_NO":999,"REV_AT_EPOCH":104,"BSTAR":-0.84868829,"MEAN_MOTION_DOT":-0.01877882,"MEAN_MOTION_DDOT":0},{"OBJECT_NAME":"QIANFAN GROUP 7 OBJECT L","OBJECT_ID":"2026-075L","EPOCH":"2026-04-16T08:59:59.244864","MEAN_MOTION":14.26073151,"ECCENTRICITY":0.00142512,"INCLINATION":88.9912,"RA_OF_ASC_NODE":327.6966,"ARG_OF_PERICENTER":186.1993,"MEAN_ANOMALY":173.9026,"EPHEMERIS_TYPE":0,"CLASSIFICATION_TYPE":"U","NORAD_CAT_ID":68646,"ELEMENT_SET_NO":999,"REV_AT_EPOCH":125,"BSTAR":9.8201644e-5,"MEAN_MOTION_DOT":2.49e-6,"MEAN_MOTION_DDOT":0},{"OBJECT_NAME":"QIANFAN GROUP 7 OBJECT M","OBJECT_ID":"2026-075M","EPOCH":"2026-04-16T22:28:01.039296","MEAN_MOTION":14.26072891,"ECCENTRICITY":0.00144037,"INCLINATION":88.9912,"RA_OF_ASC_NODE":327.6317,"ARG_OF_PERICENTER":184.5299,"MEAN_ANOMALY":175.5766,"EPHEMERIS_TYPE":0,"CLASSIFICATION_TYPE":"U","NORAD_CAT_ID":68647,"ELEMENT_SET_NO":999,"REV_AT_EPOCH":133,"BSTAR":6.6532534e-5,"MEAN_MOTION_DOT":1.74e-6,"MEAN_MOTION_DDOT":0},{"OBJECT_NAME":"QIANFAN GROUP 7 OBJECT N","OBJECT_ID":"2026-075N","EPOCH":"2026-04-16T22:27:50.829408","MEAN_MOTION":14.26052996,"ECCENTRICITY":0.00140524,"INCLINATION":88.9912,"RA_OF_ASC_NODE":327.6317,"ARG_OF_PERICENTER":184.0917,"MEAN_ANOMALY":176.0164,"EPHEMERIS_TYPE":0,"CLASSIFICATION_TYPE":"U","NORAD_CAT_ID":68648,"ELEMENT_SET_NO":999,"REV_AT_EPOCH":133,"BSTAR":2.6950215e-5,"MEAN_MOTION_DOT":7.9e-7,"MEAN_MOTION_DDOT":0},{"OBJECT_NAME":"QIANFAN GROUP 7 OBJECT P","OBJECT_ID":"2026-075P","EPOCH":"2026-04-16T22:27:36.850752","MEAN_MOTION":14.26086811,"ECCENTRICITY":0.00142136,"INCLINATION":88.9912,"RA_OF_ASC_NODE":327.6317,"ARG_OF_PERICENTER":183.8138,"MEAN_ANOMALY":176.2949,"EPHEMERIS_TYPE":0,"CLASSIFICATION_TYPE":"U","NORAD_CAT_ID":68649,"ELEMENT_SET_NO":999,"REV_AT_EPOCH":133,"BSTAR":0.0002184264,"MEAN_MOTION_DOT":5.37e-6,"MEAN_MOTION_DDOT":0},{"OBJECT_NAME":"QIANFAN GROUP 7 OBJECT Q","OBJECT_ID":"2026-075Q","EPOCH":"2026-04-16T22:32:10.777632","MEAN_MOTION":14.23604807,"ECCENTRICITY":0.00144119,"INCLINATION":88.9906,"RA_OF_ASC_NODE":327.6312,"ARG_OF_PERICENTER":182.8127,"MEAN_ANOMALY":177.2987,"EPHEMERIS_TYPE":0,"CLASSIFICATION_TYPE":"U","NORAD_CAT_ID":68650,"ELEMENT_SET_NO":999,"REV_AT_EPOCH":130,"BSTAR":-0.0011931965,"MEAN_MOTION_DOT":-2.703e-5,"MEAN_MOTION_DDOT":0},{"OBJECT_NAME":"QIANFAN GROUP 7 OBJECT R","OBJECT_ID":"2026-075R","EPOCH":"2026-04-16T22:27:31.858560","MEAN_MOTION":14.26077981,"ECCENTRICITY":0.00147277,"INCLINATION":88.9911,"RA_OF_ASC_NODE":327.6317,"ARG_OF_PERICENTER":183.813,"MEAN_ANOMALY":176.2953,"EPHEMERIS_TYPE":0,"CLASSIFICATION_TYPE":"U","NORAD_CAT_ID":68651,"ELEMENT_SET_NO":999,"REV_AT_EPOCH":133,"BSTAR":-3.6688991e-5,"MEAN_MOTION_DOT":-7.3e-7,"MEAN_MOTION_DDOT":0},{"OBJECT_NAME":"QIANFAN GROUP 7 OBJECT S","OBJECT_ID":"2026-075S","EPOCH":"2026-04-16T22:27:14.442912","MEAN_MOTION":14.26098652,"ECCENTRICITY":0.00142292,"INCLINATION":88.991,"RA_OF_ASC_NODE":327.6311,"ARG_OF_PERICENTER":185.1809,"MEAN_ANOMALY":174.9239,"EPHEMERIS_TYPE":0,"CLASSIFICATION_TYPE":"U","NORAD_CAT_ID":68652,"ELEMENT_SET_NO":999,"REV_AT_EPOCH":133,"BSTAR":-0.00025553495,"MEAN_MOTION_DOT":-5.96e-6,"MEAN_MOTION_DDOT":0},{"OBJECT_NAME":"QIANFAN GROUP 7 OBJECT T","OBJECT_ID":"2026-075T","EPOCH":"2026-04-16T20:46:00.446016","MEAN_MOTION":14.26121273,"ECCENTRICITY":0.00145454,"INCLINATION":88.992,"RA_OF_ASC_NODE":327.6404,"ARG_OF_PERICENTER":182.8657,"MEAN_ANOMALY":177.2456,"EPHEMERIS_TYPE":0,"CLASSIFICATION_TYPE":"U","NORAD_CAT_ID":68653,"ELEMENT_SET_NO":999,"REV_AT_EPOCH":132,"BSTAR":0.0019997097,"MEAN_MOTION_DOT":4.8e-5,"MEAN_MOTION_DDOT":0},{"OBJECT_NAME":"CZ-8 R/B","OBJECT_ID":"2026-075U","EPOCH":"2026-04-16T22:02:18.547872","MEAN_MOTION":14.40034254,"ECCENTRICITY":0.00736607,"INCLINATION":88.9903,"RA_OF_ASC_NODE":327.6079,"ARG_OF_PERICENTER":89.2062,"MEAN_ANOMALY":271.7578,"EPHEMERIS_TYPE":0,"CLASSIFICATION_TYPE":"U","NORAD_CAT_ID":68654,"ELEMENT_SET_NO":999,"REV_AT_EPOCH":133,"BSTAR":2.9888139e-5,"MEAN_MOTION_DOT":1.14e-6,"MEAN_MOTION_DDOT":0},{"OBJECT_NAME":"HULIANWANG DIGUI-164","OBJECT_ID":"2026-076A","EPOCH":"2026-04-16T12:54:11.873088","MEAN_MOTION":13.80797947,"ECCENTRICITY":0.00076149,"INCLINATION":86.4942,"RA_OF_ASC_NODE":65.5291,"ARG_OF_PERICENTER":190.1541,"MEAN_ANOMALY":169.9473,"EPHEMERIS_TYPE":0,"CLASSIFICATION_TYPE":"U","NORAD_CAT_ID":68656,"ELEMENT_SET_NO":999,"REV_AT_EPOCH":107,"BSTAR":-0.00094384731,"MEAN_MOTION_DOT":-9.75e-6,"MEAN_MOTION_DDOT":0},{"OBJECT_NAME":"HULIANWANG DIGUI-165","OBJECT_ID":"2026-076B","EPOCH":"2026-04-15T19:30:14.484960","MEAN_MOTION":13.81265757,"ECCENTRICITY":0.00071107,"INCLINATION":86.4958,"RA_OF_ASC_NODE":65.8012,"ARG_OF_PERICENTER":188.9983,"MEAN_ANOMALY":171.1057,"EPHEMERIS_TYPE":0,"CLASSIFICATION_TYPE":"U","NORAD_CAT_ID":68657,"ELEMENT_SET_NO":999,"REV_AT_EPOCH":97,"BSTAR":0.00012085186,"MEAN_MOTION_DOT":1.45e-6,"MEAN_MOTION_DDOT":0},{"OBJECT_NAME":"HULIANWANG DIGUI-166","OBJECT_ID":"2026-076C","EPOCH":"2026-04-15T19:29:01.968576","MEAN_MOTION":13.81788312,"ECCENTRICITY":0.00068372,"INCLINATION":86.4899,"RA_OF_ASC_NODE":65.7912,"ARG_OF_PERICENTER":183.7491,"MEAN_ANOMALY":176.3625,"EPHEMERIS_TYPE":0,"CLASSIFICATION_TYPE":"U","NORAD_CAT_ID":68658,"ELEMENT_SET_NO":999,"REV_AT_EPOCH":97,"BSTAR":-0.00051288377,"MEAN_MOTION_DOT":-5.31e-6,"MEAN_MOTION_DDOT":0},{"OBJECT_NAME":"HULIANWANG DIGUI-167","OBJECT_ID":"2026-076D","EPOCH":"2026-04-16T12:49:56.185248","MEAN_MOTION":13.82387345,"ECCENTRICITY":0.00067236,"INCLINATION":86.4961,"RA_OF_ASC_NODE":65.5314,"ARG_OF_PERICENTER":176.8106,"MEAN_ANOMALY":183.3106,"EPHEMERIS_TYPE":0,"CLASSIFICATION_TYPE":"U","NORAD_CAT_ID":68659,"ELEMENT_SET_NO":999,"REV_AT_EPOCH":107,"BSTAR":-6.7129592e-5,"MEAN_MOTION_DOT":-5.5e-7,"MEAN_MOTION_DDOT":0},{"OBJECT_NAME":"HULIANWANG DIGUI-168","OBJECT_ID":"2026-076E","EPOCH":"2026-04-16T18:00:53.923968","MEAN_MOTION":13.82964241,"ECCENTRICITY":0.00064458,"INCLINATION":86.494,"RA_OF_ASC_NODE":65.4459,"ARG_OF_PERICENTER":175.0396,"MEAN_ANOMALY":185.0836,"EPHEMERIS_TYPE":0,"CLASSIFICATION_TYPE":"U","NORAD_CAT_ID":68660,"ELEMENT_SET_NO":999,"REV_AT_EPOCH":109,"BSTAR":-0.00064055911,"MEAN_MOTION_DOT":-6.82e-6,"MEAN_MOTION_DDOT":0},{"OBJECT_NAME":"CZ-6A R/B","OBJECT_ID":"2026-076F","EPOCH":"2026-04-16T23:02:14.198784","MEAN_MOTION":14.09391429,"ECCENTRICITY":0.01071892,"INCLINATION":86.5067,"RA_OF_ASC_NODE":65.245,"ARG_OF_PERICENTER":85.7299,"MEAN_ANOMALY":275.6123,"EPHEMERIS_TYPE":0,"CLASSIFICATION_TYPE":"U","NORAD_CAT_ID":68661,"ELEMENT_SET_NO":999,"REV_AT_EPOCH":115,"BSTAR":2.3891014e-5,"MEAN_MOTION_DOT":6.4e-7,"MEAN_MOTION_DDOT":0},{"OBJECT_NAME":"GUOWANG TEST OBJECT A","OBJECT_ID":"2026-078A","EPOCH":"2026-04-16T22:24:46.696320","MEAN_MOTION":13.68812973,"ECCENTRICITY":0.00080633,"INCLINATION":86.4975,"RA_OF_ASC_NODE":303.9253,"ARG_OF_PERICENTER":269.6934,"MEAN_ANOMALY":90.3301,"EPHEMERIS_TYPE":0,"CLASSIFICATION_TYPE":"U","NORAD_CAT_ID":68687,"ELEMENT_SET_NO":999,"REV_AT_EPOCH":73,"BSTAR":0.00036928053,"MEAN_MOTION_DOT":3.34e-6,"MEAN_MOTION_DDOT":0},{"OBJECT_NAME":"GUOWANG TEST OBJECT B","OBJECT_ID":"2026-078B","EPOCH":"2026-04-16T22:39:06.744384","MEAN_MOTION":14.21573875,"ECCENTRICITY":0.02521496,"INCLINATION":86.5863,"RA_OF_ASC_NODE":303.8407,"ARG_OF_PERICENTER":7.7597,"MEAN_ANOMALY":352.7377,"EPHEMERIS_TYPE":0,"CLASSIFICATION_TYPE":"U","NORAD_CAT_ID":68688,"ELEMENT_SET_NO":999,"REV_AT_EPOCH":76,"BSTAR":8.6294593e-5,"MEAN_MOTION_DOT":2.82e-6,"MEAN_MOTION_DDOT":0},{"OBJECT_NAME":"CYGNUS NG-24","OBJECT_ID":"2026-079A","EPOCH":"2026-04-16T20:16:06.009600","MEAN_MOTION":15.48789484,"ECCENTRICITY":0.00065733,"INCLINATION":51.6329,"RA_OF_ASC_NODE":243.6903,"ARG_OF_PERICENTER":315.5681,"MEAN_ANOMALY":44.478,"EPHEMERIS_TYPE":0,"CLASSIFICATION_TYPE":"U","NORAD_CAT_ID":68689,"ELEMENT_SET_NO":999,"REV_AT_EPOCH":77,"BSTAR":8.5733361e-5,"MEAN_MOTION_DOT":4.242e-5,"MEAN_MOTION_DDOT":0},{"OBJECT_NAME":"GUOWANG TEST OBJECT C","OBJECT_ID":"2026-078C","EPOCH":"2026-04-16T22:21:04.122144","MEAN_MOTION":14.6173205,"ECCENTRICITY":0.044439,"INCLINATION":86.6399,"RA_OF_ASC_NODE":303.7697,"ARG_OF_PERICENTER":8.0108,"MEAN_ANOMALY":352.7894,"EPHEMERIS_TYPE":0,"CLASSIFICATION_TYPE":"U","NORAD_CAT_ID":68690,"ELEMENT_SET_NO":999,"REV_AT_EPOCH":78,"BSTAR":0.00023104782,"MEAN_MOTION_DOT":5.079e-5,"MEAN_MOTION_DDOT":0},{"OBJECT_NAME":"JILIN GAOFEN OBJECT A","OBJECT_ID":"2026-080A","EPOCH":"2026-04-16T22:21:19.602432","MEAN_MOTION":15.08304498,"ECCENTRICITY":0.0010978,"INCLINATION":97.6641,"RA_OF_ASC_NODE":182.5718,"ARG_OF_PERICENTER":272.3718,"MEAN_ANOMALY":87.6253,"EPHEMERIS_TYPE":0,"CLASSIFICATION_TYPE":"U","NORAD_CAT_ID":68691,"ELEMENT_SET_NO":999,"REV_AT_EPOCH":42,"BSTAR":2.0549e-5,"MEAN_MOTION_DOT":2.55e-6,"MEAN_MOTION_DDOT":0},{"OBJECT_NAME":"JILIN GAOFEN OBJECT B","OBJECT_ID":"2026-080B","EPOCH":"2026-04-16T03:14:37.366944","MEAN_MOTION":15.09262303,"ECCENTRICITY":0.00140438,"INCLINATION":97.6616,"RA_OF_ASC_NODE":181.7764,"ARG_OF_PERICENTER":273.1046,"MEAN_ANOMALY":86.8575,"EPHEMERIS_TYPE":0,"CLASSIFICATION_TYPE":"U","NORAD_CAT_ID":68692,"ELEMENT_SET_NO":999,"REV_AT_EPOCH":30,"BSTAR":0.00014082762,"MEAN_MOTION_DOT":2.181e-5,"MEAN_MOTION_DDOT":0}]
